RCM-1                   
1 44322U 19033A   26193.50517381  .00000243  00000+0  29028-4 0  9995
2 44322  97.7602 200.5940 0001546  92.8625  67.1930 14.92591634385855
RCM-3                   
1 44323U 19033B   26193.49800976  .00000173  00000+0  22245-4 0  9995
2 44323  97.7602 200.6812 0001518  89.8045 270.3348 14.92589259385879
RCM-2                   
1 44324U 19033C   26193.45317330 -.00000095  00000+0 -38199-5 0  9990
2 44324  97.7602 200.5876 0001485  90.6480 269.4910 14.92590076385856
