{"fetched_at":"2026-07-12T17:33:01.954Z","source":"https://celestrak.org/NORAD/elements/gp.php?NAME=RCM&FORMAT=JSON","constellation":"rcm","records":[{"OBJECT_NAME":"RCM-1","OBJECT_ID":"2019-033A","EPOCH":"2026-07-12T12:07:27.017184","CLASSIFICATION_TYPE":"U","MEAN_MOTION":14.92591634,"ECCENTRICITY":0.0001546,"INCLINATION":97.7602,"RA_OF_ASC_NODE":200.594,"ARG_OF_PERICENTER":92.8625,"MEAN_ANOMALY":67.193,"EPHEMERIS_TYPE":0,"NORAD_CAT_ID":44322,"ELEMENT_SET_NO":999,"REV_AT_EPOCH":38585,"BSTAR":0.000029028,"MEAN_MOTION_DOT":0.00000243,"MEAN_MOTION_DDOT":0},{"OBJECT_NAME":"RCM-3","OBJECT_ID":"2019-033B","EPOCH":"2026-07-12T11:57:08.043264","CLASSIFICATION_TYPE":"U","MEAN_MOTION":14.92589259,"ECCENTRICITY":0.0001518,"INCLINATION":97.7602,"RA_OF_ASC_NODE":200.6812,"ARG_OF_PERICENTER":89.8045,"MEAN_ANOMALY":270.3348,"EPHEMERIS_TYPE":0,"NORAD_CAT_ID":44323,"ELEMENT_SET_NO":999,"REV_AT_EPOCH":38587,"BSTAR":0.000022245,"MEAN_MOTION_DOT":0.00000173,"MEAN_MOTION_DDOT":0},{"OBJECT_NAME":"RCM-2","OBJECT_ID":"2019-033C","EPOCH":"2026-07-12T10:52:34.173120","CLASSIFICATION_TYPE":"U","MEAN_MOTION":14.92590076,"ECCENTRICITY":0.0001485,"INCLINATION":97.7602,"RA_OF_ASC_NODE":200.5876,"ARG_OF_PERICENTER":90.648,"MEAN_ANOMALY":269.491,"EPHEMERIS_TYPE":0,"NORAD_CAT_ID":44324,"ELEMENT_SET_NO":999,"REV_AT_EPOCH":38585,"BSTAR":-0.0000038199,"MEAN_MOTION_DOT":-9.5e-7,"MEAN_MOTION_DDOT":0}]}
